[{"OBJECT_NAME":"STARLINK-32474","OBJECT_ID":"2024-175T","EPOCH":"2026-03-09T14:50:34.092960","MEAN_MOTION":15.30183447,"ECCENTRICITY":0.0001228,"INCLINATION":53.1598,"RA_OF_ASC_NODE":194.2985,"ARG_OF_PERICENTER":77.7745,"MEAN_ANOMALY":282.3393,"EPHEMERIS_TYPE":0,"CLASSIFICATION_TYPE":"U","NORAD_CAT_ID":61260,"ELEMENT_SET_NO":999,"REV_AT_EPOCH":8144,"BSTAR":9.3562e-5,"MEAN_MOTION_DOT":2.411e-5,"MEAN_MOTION_DDOT":0},{"OBJECT_NAME":"NUSHSAT1","OBJECT_ID":"2025-052B","EPOCH":"2026-03-09T15:31:41.225952","MEAN_MOTION":15.31903202,"ECCENTRICITY":0.0005501,"INCLINATION":97.4095,"RA_OF_ASC_NODE":325.7239,"ARG_OF_PERICENTER":84.7512,"MEAN_ANOMALY":275.4357,"EPHEMERIS_TYPE":0,"CLASSIFICATION_TYPE":"U","NORAD_CAT_ID":63211,"ELEMENT_SET_NO":999,"REV_AT_EPOCH":5488,"BSTAR":0.00074857,"MEAN_MOTION_DOT":0.00023034,"MEAN_MOTION_DDOT":0}]
